start=new Date('2022-02-04T00:00:00.000Z').valueOf();
sats=[{"MEAN_ANOMALY":"280.7437","FILE":"3291273","SITE":"AFETR","OBJECT_TYPE":"PAYLOAD","MEAN_MOTION_DDOT":"0.0000000000000","NORAD_CAT_ID":"46150","ARG_OF_PERICENTER":"79.3753","RA_OF_ASC_NODE":"187.1774","PERIAPSIS":"545.968","LAUNCH_DATE":"2020-08-18","DECAY_DATE":null,"INCLINATION":"53.0532","RCS_SIZE":"LARGE","CENTER_NAME":"EARTH","TLE_LINE2":"2 46150  53.0532 187.1774 0001790  79.3753 280.7437 15.06402061 80769","ELEMENT_SET_NO":"999","COUNTRY_CODE":"US","MEAN_MOTION_DOT":"-0.00000027","TLE_LINE1":"1 46150U 20057AK  22034.85659340 -.00000027  00000-0  17070-4 0  9990","MEAN_MOTION":"15.06402061","EPOCH":"2022-02-03T20:33:29.669760","APOAPSIS":"548.447","OBJECT_ID":"2020-057AK","ECCENTRICITY":"0.00017900","REV_AT_EPOCH":"8076","SEMIMAJOR_AXIS":"6925.342","TIME_SYSTEM":"UTC","MEAN_ELEMENT_THEORY":"SGP4","OBJECT_NAME":"STARLINK-1629","EPHEMERIS_TYPE":"0","CLASSIFICATION_TYPE":"U","GP_ID":"195257195","REF_FRAME":"TEME","PERIOD":"95.592","BSTAR":"0.00001707000000"},{"EPHEMERIS_TYPE":"0","OBJECT_NAME":"STARLINK-1631","REF_FRAME":"TEME","BSTAR":"0.00015471000000","PERIOD":"95.591","GP_ID":"195257445","CLASSIFICATION_TYPE":"U","EPOCH":"2022-02-03T18:23:26.811456","MEAN_MOTION":"15.06410288","TLE_LINE1":"1 46151U 20057AL  22034.76628254  .00002024  00000-0  15471-3 0  9991","APOAPSIS":"548.219","COUNTRY_CODE":"US","ELEMENT_SET_NO":"999","MEAN_MOTION_DOT":"0.00002024","SEMIMAJOR_AXIS":"6925.317","MEAN_ELEMENT_THEORY":"SGP4","TIME_SYSTEM":"UTC","OBJECT_ID":"2020-057AL","ECCENTRICITY":"0.00014970","REV_AT_EPOCH":"8102","INCLINATION":"53.0535","DECAY_DATE":null,"LAUNCH_DATE":"2020-08-18","TLE_LINE2":"2 46151  53.0535 167.5901 0001497  88.5353 271.5807 15.06410288 81028","RCS_SIZE":"LARGE","CENTER_NAME":"EARTH","FILE":"3291273","SITE":"AFETR","MEAN_ANOMALY":"271.5807","PERIAPSIS":"546.145","RA_OF_ASC_NODE":"167.5901","MEAN_MOTION_DDOT":"0.0000000000000","OBJECT_TYPE":"PAYLOAD","NORAD_CAT_ID":"46151","ARG_OF_PERICENTER":"88.5353"},{"CENTER_NAME":"EARTH","RCS_SIZE":"LARGE","TLE_LINE2":"2 46152  53.0535 187.9638 0001370  91.1328 268.9818 15.06406392 80734","DECAY_DATE":null,"LAUNCH_DATE":"2020-08-18","INCLINATION":"53.0535","OBJECT_TYPE":"PAYLOAD","MEAN_MOTION_DDOT":"0.0000000000000","NORAD_CAT_ID":"46152","ARG_OF_PERICENTER":"91.1328","RA_OF_ASC_NODE":"187.9638","PERIAPSIS":"546.245","MEAN_ANOMALY":"268.9818","FILE":"3291273","SITE":"AFETR","GP_ID":"195258194","CLASSIFICATION_TYPE":"U","REF_FRAME":"TEME","PERIOD":"95.592","BSTAR":"0.00049318000000","OBJECT_NAME":"STARLINK-1634","EPHEMERIS_TYPE":"0","OBJECT_ID":"2020-057AM","ECCENTRICITY":"0.00013700","REV_AT_EPOCH":"8073","SEMIMAJOR_AXIS":"6925.329","TIME_SYSTEM":"UTC","MEAN_ELEMENT_THEORY":"SGP4","COUNTRY_CODE":"US","MEAN_MOTION_DOT":"0.00007073","ELEMENT_SET_NO":"999","TLE_LINE1":"1 46152U 20057AM  22034.68337665  .00007073  00000-0  49318-3 0  9992","MEAN_MOTION":"15.06406392","EPOCH":"2022-02-03T16:24:03.742560","APOAPSIS":"548.143"},{"EPHEMERIS_TYPE":"0","OBJECT_NAME":"STARLINK-1636","REF_FRAME":"TEME","PERIOD":"95.592","BSTAR":"0.00010031000000","GP_ID":"195258447","CLASSIFICATION_TYPE":"U","TLE_LINE1":"1 46153U 20057AN  22034.65201623  .00001213  00000-0  10031-3 0  9994","MEAN_MOTION":"15.06400388","EPOCH":"2022-02-03T15:38:54.202272","APOAPSIS":"548.386","COUNTRY_CODE":"US","ELEMENT_SET_NO":"999","MEAN_MOTION_DOT":"0.00001213","SEMIMAJOR_AXIS":"6925.347","MEAN_ELEMENT_THEORY":"SGP4","TIME_SYSTEM":"UTC","ECCENTRICITY":"0.00016950","OBJECT_ID":"2020-057AN","REV_AT_EPOCH":"8100","INCLINATION":"53.0546","DECAY_DATE":null,"LAUNCH_DATE":"2020-08-18","TLE_LINE2":"2 46153  53.0546 168.1117 0001695  84.3584 275.7599 15.06400388 81000","RCS_SIZE":"LARGE","CENTER_NAME":"EARTH","FILE":"3291273","SITE":"AFETR","MEAN_ANOMALY":"275.7599","RA_OF_ASC_NODE":"168.1117","PERIAPSIS":"546.039","OBJECT_TYPE":"PAYLOAD","MEAN_MOTION_DDOT":"0.0000000000000","ARG_OF_PERICENTER":"84.3584","NORAD_CAT_ID":"46153"},{"INCLINATION":"53.0544","LAUNCH_DATE":"2020-08-18","DECAY_DATE":null,"TLE_LINE2":"2 46154  53.0544 177.1720 0001664  84.8610 275.2569 15.06406000 80907","CENTER_NAME":"EARTH","RCS_SIZE":"LARGE","SITE":"AFETR","FILE":"3291273","MEAN_ANOMALY":"275.2569","RA_OF_ASC_NODE":"177.1720","PERIAPSIS":"546.043","OBJECT_TYPE":"PAYLOAD","NORAD_CAT_ID":"46154","MEAN_MOTION_DDOT":"0.0000000000000","ARG_OF_PERICENTER":"84.8610","EPHEMERIS_TYPE":"0","OBJECT_NAME":"STARLINK-1642","PERIOD":"95.592","BSTAR":"0.00013387000000","REF_FRAME":"TEME","GP_ID":"195257695","CLASSIFICATION_TYPE":"U","APOAPSIS":"548.348","TLE_LINE1":"1 46154U 20057AP  22034.86119646  .00001713  00000-0  13387-3 0  9993","MEAN_MOTION":"15.06406000","EPOCH":"2022-02-03T20:40:07.374144","COUNTRY_CODE":"US","ELEMENT_SET_NO":"999","MEAN_MOTION_DOT":"0.00001713","MEAN_ELEMENT_THEORY":"SGP4","TIME_SYSTEM":"UTC","SEMIMAJOR_AXIS":"6925.330","REV_AT_EPOCH":"8090","ECCENTRICITY":"0.00016640","OBJECT_ID":"2020-057AP"},{"MEAN_ANOMALY":"286.2677","FILE":"3291273","SITE":"AFETR","MEAN_MOTION_DDOT":"0.0000000000000","OBJECT_TYPE":"PAYLOAD","ARG_OF_PERICENTER":"73.8461","NORAD_CAT_ID":"46155","PERIAPSIS":"546.242","RA_OF_ASC_NODE":"147.9375","DECAY_DATE":null,"LAUNCH_DATE":"2020-08-18","INCLINATION":"53.0529","CENTER_NAME":"EARTH","RCS_SIZE":"LARGE","TLE_LINE2":"2 46155  53.0529 147.9375 0001354  73.8461 286.2677 15.06411003 82532","MEAN_MOTION_DOT":"-0.00002312","COUNTRY_CODE":"US","ELEMENT_SET_NO":"999","MEAN_MOTION":"15.06411003","EPOCH":"2022-02-03T16:29:19.496544","TLE_LINE1":"1 46155U 20057AQ  22034.68703121 -.00002312  00000-0 -13630-3 0  9990","APOAPSIS":"548.118","OBJECT_ID":"2020-057AQ","ECCENTRICITY":"0.00013540","REV_AT_EPOCH":"8253","SEMIMAJOR_AXIS":"6925.315","TIME_SYSTEM":"UTC","MEAN_ELEMENT_THEORY":"SGP4","OBJECT_NAME":"STARLINK-1667","EPHEMERIS_TYPE":"0","GP_ID":"195257945","CLASSIFICATION_TYPE":"U","REF_FRAME":"TEME","BSTAR":"-0.00013630000000","PERIOD":"95.591"},{"MEAN_ANOMALY":"278.8928","FILE":"3291273","SITE":"AFETR","MEAN_MOTION_DDOT":"0.0000000000000","OBJECT_TYPE":"PAYLOAD","NORAD_CAT_ID":"46156","ARG_OF_PERICENTER":"81.2243","PERIAPSIS":"546.089","RA_OF_ASC_NODE":"167.6823","DECAY_DATE":null,"LAUNCH_DATE":"2020-08-18","INCLINATION":"53.0528","RCS_SIZE":"LARGE","CENTER_NAME":"EARTH","TLE_LINE2":"2 46156  53.0528 167.6823 0001615  81.2243 278.8928 15.06402046 82274","COUNTRY_CODE":"US","ELEMENT_SET_NO":"999","MEAN_MOTION_DOT":"0.00001793","MEAN_MOTION":"15.06402046","EPOCH":"2022-02-03T17:51:36.216288","TLE_LINE1":"1 46156U 20057AR  22034.74416917  .00001793  00000-0  13920-3 0  9994","APOAPSIS":"548.326","ECCENTRICITY":"0.00016150","OBJECT_ID":"2020-057AR","REV_AT_EPOCH":"8227","SEMIMAJOR_AXIS":"6925.342","MEAN_ELEMENT_THEORY":"SGP4","TIME_SYSTEM":"UTC","OBJECT_NAME":"STARLINK-1545","EPHEMERIS_TYPE":"0","GP_ID":"195258694","CLASSIFICATION_TYPE":"U","REF_FRAME":"TEME","BSTAR":"0.00013920000000","PERIOD":"95.592"},{"INCLINATION":"53.0551","DECAY_DATE":null,"LAUNCH_DATE":"2020-08-18","TLE_LINE2":"2 46157  53.0551 147.7437 0001335  66.0019 294.1109 15.06401012 81309","RCS_SIZE":"LARGE","CENTER_NAME":"EARTH","SITE":"AFETR","FILE":"3291273","MEAN_ANOMALY":"294.1109","PERIAPSIS":"546.286","RA_OF_ASC_NODE":"147.7437","OBJECT_TYPE":"PAYLOAD","MEAN_MOTION_DDOT":"0.0000000000000","ARG_OF_PERICENTER":"66.0019","NORAD_CAT_ID":"46157","EPHEMERIS_TYPE":"0","OBJECT_NAME":"STARLINK-1587","BSTAR":"0.00015827000000","PERIOD":"95.592","REF_FRAME":"TEME","CLASSIFICATION_TYPE":"U","GP_ID":"195258947","APOAPSIS":"548.135","EPOCH":"2022-02-03T17:33:03.521664","MEAN_MOTION":"15.06401012","TLE_LINE1":"1 46157U 20057AS  22034.73129076  .00002077  00000-0  15827-3 0  9995","COUNTRY_CODE":"US","MEAN_MOTION_DOT":"0.00002077","ELEMENT_SET_NO":"999","TIME_SYSTEM":"UTC","MEAN_ELEMENT_THEORY":"SGP4","SEMIMAJOR_AXIS":"6925.345","REV_AT_EPOCH":"8130","ECCENTRICITY":"0.00013350","OBJECT_ID":"2020-057AS"},{"FILE":"3291273","SITE":"AFETR","MEAN_ANOMALY":"277.5494","PERIAPSIS":"546.367","RA_OF_ASC_NODE":"147.4702","OBJECT_TYPE":"PAYLOAD","ARG_OF_PERICENTER":"82.5632","MEAN_MOTION_DDOT":"0.0000000000000","NORAD_CAT_ID":"46158","INCLINATION":"53.0539","DECAY_DATE":null,"LAUNCH_DATE":"2020-08-18","TLE_LINE2":"2 46158  53.0539 147.4702 0001205  82.5632 277.5494 15.06404071 82578","RCS_SIZE":"LARGE","CENTER_NAME":"EARTH","EPOCH":"2022-02-03T19:03:15.851808","MEAN_MOTION":"15.06404071","TLE_LINE1":"1 46158U 20057AT  22034.79393347  .00005004  00000-0  35456-3 0  9999","APOAPSIS":"548.036","COUNTRY_CODE":"US","MEAN_MOTION_DOT":"0.00005004","ELEMENT_SET_NO":"999","SEMIMAJOR_AXIS":"6925.336","MEAN_ELEMENT_THEORY":"SGP4","TIME_SYSTEM":"UTC","OBJECT_ID":"2020-057AT","ECCENTRICITY":"0.00012050","REV_AT_EPOCH":"8257","EPHEMERIS_TYPE":"0","OBJECT_NAME":"STARLINK-1589","REF_FRAME":"TEME","BSTAR":"0.00035456000000","PERIOD":"95.592","GP_ID":"195257196","CLASSIFICATION_TYPE":"U"},{"RA_OF_ASC_NODE":"187.2898","PERIAPSIS":"546.116","MEAN_MOTION_DDOT":"0.0000000000000","OBJECT_TYPE":"PAYLOAD","NORAD_CAT_ID":"46159","ARG_OF_PERICENTER":"85.2249","SITE":"AFETR","FILE":"3291273","MEAN_ANOMALY":"274.8921","TLE_LINE2":"2 46159  53.0538 187.2898 0001586  85.2249 274.8921 15.06399616 82014","RCS_SIZE":"LARGE","CENTER_NAME":"EARTH","INCLINATION":"53.0538","LAUNCH_DATE":"2020-08-18","DECAY_DATE":null,"MEAN_ELEMENT_THEORY":"SGP4","TIME_SYSTEM":"UTC","SEMIMAJOR_AXIS":"6925.350","REV_AT_EPOCH":"8201","OBJECT_ID":"2020-057AU","ECCENTRICITY":"0.00015860","APOAPSIS":"548.313","TLE_LINE1":"1 46159U 20057AU  22034.83447945 -.00000925  00000-0 -43227-4 0  9994","EPOCH":"2022-02-03T20:01:39.024480","MEAN_MOTION":"15.06399616","ELEMENT_SET_NO":"999","COUNTRY_CODE":"US","MEAN_MOTION_DOT":"-0.00000925","PERIOD":"95.592","BSTAR":"-0.00004322700000","REF_FRAME":"TEME","CLASSIFICATION_TYPE":"U","GP_ID":"195257446","EPHEMERIS_TYPE":"0","OBJECT_NAME":"STARLINK-1595"}];
